AEROCUBE 12A            
1 43556U 18046C   19249.92479351  .00001497  00000-0  65150-4 0  9999
2 43556  51.6438  31.7385 0008336   1.4408 358.6594 15.28887147 63837
AEROCUBE 12B            
1 43557U 18046D   19249.81476055  .00001594  00000-0  68851-4 0  9995
2 43557  51.6432  32.4993 0008261   0.9482 359.1512 15.28732087 63768
UITMSAT-1               
1 43589U 98067PD  19249.55226706  .00014163  00000-0  15570-3 0  9993
2 43589  51.6356 299.6157 0005658  86.1404 274.0238 15.63454196 61235
MAYA-1                  
1 43590U 98067PE  19249.54642994  .00014049  00000-0  15439-3 0  9992
2 43590  51.6358 299.5818 0005720  88.0870 272.0779 15.63471283 61166
BHUTAN-1                
1 43591U 98067PF  19249.53413918  .00014068  00000-0  15423-3 0  9998
2 43591  51.6368 299.5291 0005853  87.4773 272.6891 15.63530855 61167
SIRIUSSAT-1             
1 43595U 98067PG  19250.20348724  .00010336  00000-0  11902-3 0  9992
2 43595  51.6358 297.9709 0004183  51.2904 308.8464 15.62621903 60426
SIRIUSSAT-2             
1 43596U 98067PH  19249.60258714  .00012203  00000-0  14037-3 0  9991
2 43596  51.6368 301.5013 0004645  49.9042 310.2359 15.62443951 60322
TANUSHA-3               
1 43597U 98067PJ  19249.63968723  .00016526  00000-0  17383-3 0  9992
2 43597  51.6351 298.6731 0004240  60.0143 300.1273 15.64445792 60369
SURFSAT                 
1 43614U 18070B   19249.90590272  .00002119  00000-0  57114-4 0  9998
2 43614  93.0286  36.7672 0015877   6.7063 353.4400 15.37798330 54733
CP7 (DAVE)              
1 43615U 18070C   19250.17641511  .00002024  00000-0  54703-4 0  9999
2 43615  93.0289  36.8785 0016018   4.9479 355.1930 15.37706685 54775
ELFIN-B                 
1 43616U 18070D   19250.14924979  .00002897  00000-0  76337-4 0  9994
2 43616  93.0251  36.7754 0016845   8.0135 352.1385 15.38443804 54786
ELFIN-A                 
1 43617U 18070E   19249.88045573  .00003328  00000-0  87555-4 0  9992
2 43617  93.0306  36.9419 0015952   6.3993 353.7461 15.38499276 54741
CUBEBEL-1 (BSUSAT-1)    
1 43666U 18083E   19250.05891647  .00001159  00000-0  60789-4 0  9992
2 43666  97.5170 273.9791 0013438 270.4486 174.7554 15.17698302 47471
DEBRISSAT-2             
1 43680U 98067PR  19249.50788275  .00022760  00000-0  22506-3 0  9993
2 43680  51.6360 298.5886 0003915  68.1487 291.9924 15.65765270 69085
CICERO 10               
1 43690U 18088A   19250.15708067  .00000626  00000-0  27399-4 0  9996
2 43690  85.0347 265.5302 0012696 273.4523  86.5266 15.19751104 45550
IRVINE01                
1 43693U 18088D   19249.85334175  .00002087  00000-0  90477-4 0  9999
2 43693  85.0326 265.1682 0015901 256.4893 103.4577 15.21617009 45552
PROXIMA I               
1 43694U 18088E   19249.81489477  .00000811  00000-0  34153-4 0  9994
2 43694  85.0290 264.9998 0017206 247.3243 112.6180 15.21476528 45559
PROXIMA II              
1 43696U 18088G   19249.81377956  .00000802  00000-0  33785-4 0  9994
2 43696  85.0291 265.0019 0017242 247.2841 112.6578 15.21481133 45550
FACSAT-1                
1 43721U 18096C   19250.17410352  .00001091  00000-0  44528-4 0  9999
2 43721  97.4539 319.8912 0019147  50.0885 310.2033 15.26453039 43015
CENTAURI-2              
1 43722U 18096D   19249.81469054  .00001700  00000-0  67275-4 0  9993
2 43722  97.4542 319.6081 0019325  51.7579 308.5396 15.26709107 42955
INNOSAT-2               
1 43738U 18096V   19250.15530262  .00002114  00000-0  77278-4 0  9993
2 43738  97.4544 320.8405 0025695  59.8812 300.4970 15.28930058 43070
SIRION PATHFINDER-2     
1 43759U 18099B   19250.16249565  .00000200  00000-0  23401-4 0  9996
2 43759  97.7396 321.1392 0015618  56.0879 304.1824 14.95157453 41447
CORVUS-BC 4             
1 43767U 18099K   19249.86378606  .00000150  00000-0  19117-4 0  9992
2 43767  97.7379 320.5570 0013066  60.7790 299.4735 14.94597284 41397
MOVE-II                 
1 43780U 18099Y   19250.18350542  .00000010  00000-0  61579-5 0  9998
2 43780  97.7388 321.0668 0014885  66.7320 293.5466 14.95113620 41431
SPACEBEE-7              
1 43816U 18099BL  19250.18281390 -.00000109  00000-0 -45659-5 0  9994
2 43816  97.7403 321.2711 0014538  52.6866 307.5677 14.95455980 41005
SPACEBEE-5              
1 43817U 18099BM  19250.15505030  .00001201  00000-0  11281-3 0  9996
2 43817  97.7430 321.3545 0014410  54.7361 305.5206 14.95745781 41001
SPACEBEE-6              
1 43818U 18099BN  19250.17340019  .00000103  00000-0  14528-4 0  9991
2 43818  97.7412 321.2975 0014557  53.0047 307.2504 14.95550584 41154
SHIELDS 1               
1 43850U 18104B   19249.70796661  .00000041  00000-0  00000+0 0  9995
2 43850  85.0319   3.5655 0016434  44.1761 316.0828 15.21131895 40180
STF-1                   
1 43852U 18104D   19249.86871720  .00000041  00000-0  00000+0 0  9994
2 43852  85.0359   3.7643 0016912  54.7855 305.4994 15.20712068 40190
ZACUBE-2                
1 43907U 18111AH  19250.16260387  .00000480  00000-0  22408-4 0  9997
2 43907  97.2822 153.1624 0023378  69.0215 291.3521 15.24249429 38706
LUME 1                  
1 43908U 18111AJ  19249.75290999  .00000990  00000-0  42923-4 0  9993
2 43908  97.2822 152.7985 0023327  70.3657 290.0096 15.24442963 38645
AOBA VELOX-IV           
1 43940U 19003J   19250.11359277  .00001993  00000-0  84501-4 0  9999
2 43940  97.2699 305.6243 0024984 145.0302 270.0862 15.24002098 35339
CATSAT-2                
1 44029U 98067PV  19250.16351796  .00009337  00000-0  13031-3 0  9997
2 44029  51.6394 308.2678 0005172  85.4574 274.7009 15.57644591 34116
DELPHINI                
1 44030U 98067PW  19249.63656723  .00010011  00000-0  13850-3 0  9997
2 44030  51.6378 310.7289 0005018  79.4709 280.6849 15.57786282 34008
UNITE                   
1 44031U 98067PX  19250.17746980  .00005491  00000-0  82858-4 0  9995
2 44031  51.6390 309.0977 0003835  79.4026 280.7398 15.56479868 34070
TECHEDSAT 8             
1 44032U 98067PY  19249.62584734  .00027035  00000-0  30026-3 0  9998
2 44032  51.6373 306.9083 0003998  63.6771 296.4634 15.62700986 34036
CATSAT-1                
1 44033U 98067PZ  19250.16327136  .00007629  00000-0  10782-3 0  9995
2 44033  51.6397 308.2673 0005078  84.4412 275.7159 15.57619434 34029
RAAVANA-1               
1 44329U 98067QE  19249.21849904  .00006127  00000-0  10451-3 0  9994
2 44329  51.6412 318.4512 0007652  21.4829 338.6481 15.52794632 12610
UGUISU                  
1 44330U 98067QF  19249.22047518  .00005868  00000-0  10055-3 0  9999
2 44330  51.6411 318.4642 0007632  20.2908 339.8384 15.52754527 12599
NEPALISAT-1             
1 44331U 98067QG  19249.60281369  .00006840  00000-0  11562-3 0  9991
2 44331  51.6412 316.5186 0007704  24.1605 335.9745 15.52835403 12669
SPOOQY-1                
1 44332U 98067QH  19249.66527268  .00006648  00000-0  11247-3 0  9995
2 44332  51.6409 316.1841 0006510  26.6931 333.4393 15.52869229 12635
SPACEBEE-9              
1 44370U 19037F   19250.10350277  .00005490  00000-0  14439-3 0  9992
2 44370  45.0143 260.8009 0016051 310.4966  49.4502 15.39610672 10728
SPACEBEE-8              
1 44371U 19037G   19249.89668404  .00012250  00000-0  30565-3 0  9991
2 44371  45.0094 261.7892 0016332 313.3193  46.6308 15.40160674 10682
MOVE-IIB                
1 44398U 19038N   19250.04775755  .00001202  00000-0  73905-4 0  9999
2 44398  97.4952 210.7566 0026607  30.4577 329.8192 15.11662105  9607
SONATE                  
1 44400U 19038Q   19250.17868161  .00000564  00000-0  36730-4 0  9996
2 44400  97.4965 210.8905 0026245  28.3028 331.9621 15.11663522  9625
LUCKY-7                 
1 44406U 19038W   19249.83994925  .00000675  00000-0  43002-4 0  9994
2 44406  97.4963 210.5756 0025774  29.4556 330.8120 15.11852675  9568
BEESAT 9                
1 44412U 19038AC  19249.84216067  .00000889  00000-0  55522-4 0  9993
2 44412  97.4961 210.5716 0024092  35.2811 325.0008 15.11810341  9262
JAISAT-1                
1 44419U 19038F   19249.88753674  .00000731  00000-0  45743-4 0  9994
2 44419  97.4962 210.6650 0022910  35.1649 325.1089 15.12303675  9586
SWIATOWID               
1 44426U 98067QL  19249.56849736  .00009417  00000-0  15815-3 0  9997
2 44426  51.6420 317.0442 0004690 346.1700  13.9161 15.52514199 10140
KRAKSAT                 
1 44427U 98067QM  19250.22673712  .00005547  00000-0  97734-4 0  9993
2 44427  51.6431 313.8518 0004161 354.3202  45.9166 15.52094187 10287
VCC A                   
1 44428U 98067QN  19249.56640158  .00006058  00000-0  10499-3 0  9997
2 44428  51.6421 317.0307 0003703   4.4441 355.6581 15.52373500 10188
ENTRYSAT                
1 44429U 98067QP  19249.56398889  .00006917  00000-0  11831-3 0  9994
2 44429  51.6420 317.0144 0003470 356.3786   3.7178 15.52488477 10182
VCC C                   
1 44430U 98067QQ  19249.56567563  .00008601  00000-0  14527-3 0  9990
2 44430  51.6422 317.0258 0003724   4.3549 355.7473 15.52487008  9018
VCC B                   
1 44431U 98067QR  19249.56755934  .00006204  00000-0  10742-3 0  9994
2 44431  51.6422 317.0377 0003844   3.3916 356.7099 15.52353432 10123
